ISS OBJECT XW           
1 66910U 98067XW  26055.69265254  .00097140  00000+0  96213-3 0  9993
2 66910  51.6247 131.6079 0004115  21.7395 338.3774 15.65029958 13148
ISS OBJECT XX           
1 66911U 98067XX  26055.42100196  .00166127  00000+0  13670-2 0  9995
2 66911  51.6222 132.0369 0006169  12.7164 347.3988 15.69328988 13106
ISS OBJECT XY           
1 66912U 98067XY  26055.46915852  .00073537  00000+0  85008-3 0  9990
2 66912  51.6273 133.8770 0002128  25.6563 334.4536 15.61203953 13084
ISS OBJECT XZ           
1 67683U 98067XZ  26055.65003952  .00033321  00000+0  57394-3 0  9990
2 67683  51.6307 136.5843 0009920 142.4717 217.6967 15.50703079  2760
GXIBA-1                 
1 67684U 98067YA  26055.51036411  .00066405  00000+0  10731-2 0  9994
2 67684  51.6305 137.1526 0011405 133.9104 226.2829 15.52162735  2741
CORAL                   
1 67685U 98067YB  26055.51921871  .00040179  00000+0  68366-3 0  9996
2 67685  51.6307 137.2112 0011826 138.3350 221.8542 15.50934033  2744
ISS OBJECT YC           
1 67686U 98067YC  26055.51714998  .00045468  00000+0  76511-3 0  9994
2 67686  51.6312 137.1991 0007729 108.4650 251.7180 15.51233940  2743
LEOPARD                 
1 67687U 98067YD  26055.71334622  .00033074  00000+0  56752-3 0  9994
2 67687  51.6308 136.2582 0007750 112.1821 247.9991 15.50835076  2699
ISS OBJECT YE           
1 67688U 98067YE  26055.51802700  .00042268  00000+0  71566-3 0  9995
2 67688  51.6313 137.2046 0007633 108.8035 251.3783 15.51094294  2666
CREW DRAGON 12          
1 67796U 26031A   26055.86355973  .00009683  00000+0  18823-3 0  9991
2 67796  51.6318 135.7592 0008386 130.0533 230.1192 15.48271528554312
